[{"OBJECT_NAME":"STARLINK-1873","OBJECT_ID":"2020-088AN","EPOCH":"2026-03-09T22:04:30.038304","MEAN_MOTION":15.57021972,"ECCENTRICITY":0.00086271,"INCLINATION":53.0491,"RA_OF_ASC_NODE":267.739,"ARG_OF_PERICENTER":148.5172,"MEAN_ANOMALY":211.6357,"EPHEMERIS_TYPE":0,"CLASSIFICATION_TYPE":"U","NORAD_CAT_ID":47158,"ELEMENT_SET_NO":999,"REV_AT_EPOCH":29233,"BSTAR":0.00084582413,"MEAN_MOTION_DOT":0.00062301,"MEAN_MOTION_DDOT":0},{"OBJECT_NAME":"JILIN-1 GAOFEN 03D08","OBJECT_ID":"2022-155A","EPOCH":"2026-03-09T23:19:58.131840","MEAN_MOTION":15.549418,"ECCENTRICITY":0.00037458,"INCLINATION":97.6053,"RA_OF_ASC_NODE":207.2887,"ARG_OF_PERICENTER":356.2753,"MEAN_ANOMALY":3.8472,"EPHEMERIS_TYPE":0,"CLASSIFICATION_TYPE":"U","NORAD_CAT_ID":54251,"ELEMENT_SET_NO":999,"REV_AT_EPOCH":18435,"BSTAR":0.00076641112,"MEAN_MOTION_DOT":0.00051434,"MEAN_MOTION_DDOT":0}]
